{"spkid": "50797878", "covariance": {"labels": ["e", "q", "tp", "node", "peri", "i"], "elements": [{"units": null, "title": "eccentricity", "value": ".3263844070438243", "name": "e", "sigma": 2.34461283621416e-07, "label": "e"}, {"name": "q", "sigma": 2.49272893574633e-07, "units": "au", "title": "perihelion distance", "value": ".770792410674275", "label": "q"}, {"units": "TDB", "title": "time of perihelion passage", "value": "2459558.003464478125", "name": "tp", "sigma": 5.21598832124642e-05, "label": "tp"}, {"units": "deg", "value": "351.7865925022405", "title": "longitude of the ascending node", "sigma": 7.11728531179979e-05, "name": "om", "label": "node"}, {"sigma": 9.15521126927475e-05, "name": "w", "units": "deg", "title": "argument of perihelion", "value": "232.4466270372027", "label": "peri"}, {"label": "i", "title": "inclination", "value": "4.795404194062546", "units": "deg", "sigma": 1.17364159677566e-05, "name": "i"}], "data": [["5.497209351740226E-14", "-5.844147945147131E-14", "1.162481252504975E-11", "-7.826403761851392E-12", "1.442369775558689E-11", "1.127683746983413E-12"], ["-5.844147945147131E-14", "6.213697547107055E-14", "-1.231901620540966E-11", "8.258931557278449E-12", "-1.524773936167125E-11", "-1.181426220953665E-12"], ["1.162481252504975E-11", "-1.231901620540966E-11", "2.720653416737902E-9", "-2.047378691616519E-9", "3.623727678224134E-9", "3.521027662326135E-10"], ["-7.826403761851392E-12", "8.258931557278449E-12", "-2.047378691616519E-9", "5.065575020956103E-9", "-6.260470228943394E-9", "-7.221678491032006E-10"], ["1.442369775558689E-11", "-1.524773936167125E-11", "3.623727678224134E-9", "-6.260470228943394E-9", "8.381789338505536E-9", "9.39082624578391E-10"], ["1.127683746983413E-12", "-1.181426220953665E-12", "3.521027662326135E-10", "-7.221678491032006E-10", "9.39082624578391E-10", "1.377434597682123E-10"]], "epoch": "2459467.5"}, "elements": [{"label": "e", "sigma": "2.3456E-7", "name": "e", "value": ".326411829901584", "title": "eccentricity", "units": null}, {"sigma": "2.8077E-8", "name": "a", "title": "semi-major axis", "value": "1.144135409557594", "units": "au", "label": "a"}, {"value": ".7706760768687018", "title": "perihelion distance", "units": "au", "name": "q", "sigma": "2.4965E-7", "label": "q"}, {"label": "i", "units": "deg", "value": "4.794963986893737", "title": "inclination; angle with respect to x-y ecliptic plane", "name": "i", "sigma": "1.174E-5"}, {"label": "node", "sigma": "7.1181E-5", "name": "om", "units": "deg", "title": "longitude of the ascending node", "value": "351.7342143109797"}, {"title": "argument of perihelion", "value": "232.4921026021183", "units": "deg", "name": "w", "sigma": "9.1577E-5", "label": "peri"}, {"title": "mean anomaly", "value": "242.6141762960777", "units": "deg", "name": "ma", "sigma": "9.0734E-5", "label": "M"}, {"units": "TDB", "value": "2461346.256428415712", "title": "time of perihelion passage", "name": "tp", "sigma": ".00011801", "label": "tp"}, {"units": "d", "value": "447.0072498873902", "title": "sidereal orbital period", "sigma": "1.6454E-5", "name": "per", "label": "period"}, {"units": "deg/d", "value": ".8053560654568599", "title": "mean motion", "sigma": "2.9645E-8", "name": "n", "label": "n"}, {"name": "ad", "sigma": "3.7242E-8", "value": "1.517594742246487", "title": "aphelion distance", "units": "au", "label": "Q"}], "epoch": "2461200.5"}